<?xml version="1.0" encoding="UTF-8"?>
<ndm xmlns:xsi="http://www.w3.org/2001/XMLSchema-instance" xsi:noNamespaceSchemaLocation="https://sanaregistry.org/r/ndmxml_unqualified/ndmxml-2.0.0-master-2.0.xsd">
<omm id="CCSDS_OMM_VERS" version="2.0">
<header><CREATION_DATE/><ORIGINATOR/></header><body><segment><metadata><OBJECT_NAME>KUIPER-00112</OBJECT_NAME><OBJECT_ID>2025-171U</OBJECT_ID><CENTER_NAME>EARTH</CENTER_NAME><REF_FRAME>TEME</REF_FRAME><TIME_SYSTEM>UTC</TIME_SYSTEM><MEAN_ELEMENT_THEORY>SGP4</MEAN_ELEMENT_THEORY></metadata><data><meanElements><EPOCH>2025-12-13T16:20:31.870752</EPOCH><MEAN_MOTION>14.79959247</MEAN_MOTION><ECCENTRICITY>.00091019</ECCENTRICITY><INCLINATION>51.9014</INCLINATION><RA_OF_ASC_NODE>175.9220</RA_OF_ASC_NODE><ARG_OF_PERICENTER>234.6259</ARG_OF_PERICENTER><MEAN_ANOMALY>125.3854</MEAN_ANOMALY></meanElements><tleParameters><EPHEMERIS_TYPE>0</EPHEMERIS_TYPE><CLASSIFICATION_TYPE>U</CLASSIFICATION_TYPE><NORAD_CAT_ID>65150</NORAD_CAT_ID><ELEMENT_SET_NO>999</ELEMENT_SET_NO><REV_AT_EPOCH>2018</REV_AT_EPOCH><BSTAR>.53193483E-3</BSTAR><MEAN_MOTION_DOT>.3839E-4</MEAN_MOTION_DOT><MEAN_MOTION_DDOT>0</MEAN_MOTION_DDOT></tleParameters></data></segment></body></omm>
<omm id="CCSDS_OMM_VERS" version="2.0">
<header><CREATION_DATE/><ORIGINATOR/></header><body><segment><metadata><OBJECT_NAME>KUIPER-00114</OBJECT_NAME><OBJECT_ID>2025-171V</OBJECT_ID><CENTER_NAME>EARTH</CENTER_NAME><REF_FRAME>TEME</REF_FRAME><TIME_SYSTEM>UTC</TIME_SYSTEM><MEAN_ELEMENT_THEORY>SGP4</MEAN_ELEMENT_THEORY></metadata><data><meanElements><EPOCH>2025-12-13T13:23:26.368512</EPOCH><MEAN_MOTION>14.79973292</MEAN_MOTION><ECCENTRICITY>.00065633</ECCENTRICITY><INCLINATION>51.8980</INCLINATION><RA_OF_ASC_NODE>196.4805</RA_OF_ASC_NODE><ARG_OF_PERICENTER>169.2356</ARG_OF_PERICENTER><MEAN_ANOMALY>190.8748</MEAN_ANOMALY></meanElements><tleParameters><EPHEMERIS_TYPE>0</EPHEMERIS_TYPE><CLASSIFICATION_TYPE>U</CLASSIFICATION_TYPE><NORAD_CAT_ID>65151</NORAD_CAT_ID><ELEMENT_SET_NO>999</ELEMENT_SET_NO><REV_AT_EPOCH>1988</REV_AT_EPOCH><BSTAR>.51962131E-3</BSTAR><MEAN_MOTION_DOT>.3746E-4</MEAN_MOTION_DOT><MEAN_MOTION_DDOT>0</MEAN_MOTION_DDOT></tleParameters></data></segment></body></omm>
<omm id="CCSDS_OMM_VERS" version="2.0">
<header><CREATION_DATE/><ORIGINATOR/></header><body><segment><metadata><OBJECT_NAME>KUIPER-00115</OBJECT_NAME><OBJECT_ID>2025-171W</OBJECT_ID><CENTER_NAME>EARTH</CENTER_NAME><REF_FRAME>TEME</REF_FRAME><TIME_SYSTEM>UTC</TIME_SYSTEM><MEAN_ELEMENT_THEORY>SGP4</MEAN_ELEMENT_THEORY></metadata><data><meanElements><EPOCH>2025-12-13T07:06:06.057216</EPOCH><MEAN_MOTION>14.79943950</MEAN_MOTION><ECCENTRICITY>.00098579</ECCENTRICITY><INCLINATION>51.8992</INCLINATION><RA_OF_ASC_NODE>190.1193</RA_OF_ASC_NODE><ARG_OF_PERICENTER>195.7473</ARG_OF_PERICENTER><MEAN_ANOMALY>164.3184</MEAN_ANOMALY></meanElements><tleParameters><EPHEMERIS_TYPE>0</EPHEMERIS_TYPE><CLASSIFICATION_TYPE>U</CLASSIFICATION_TYPE><NORAD_CAT_ID>65152</NORAD_CAT_ID><ELEMENT_SET_NO>999</ELEMENT_SET_NO><REV_AT_EPOCH>1995</REV_AT_EPOCH><BSTAR>.34473159E-2</BSTAR><MEAN_MOTION_DOT>.26186E-3</MEAN_MOTION_DOT><MEAN_MOTION_DDOT>0</MEAN_MOTION_DDOT></tleParameters></data></segment></body></omm>
<omm id="CCSDS_OMM_VERS" version="2.0">
<header><CREATION_DATE/><ORIGINATOR/></header><body><segment><metadata><OBJECT_NAME>KUIPER-00116</OBJECT_NAME><OBJECT_ID>2025-171X</OBJECT_ID><CENTER_NAME>EARTH</CENTER_NAME><REF_FRAME>TEME</REF_FRAME><TIME_SYSTEM>UTC</TIME_SYSTEM><MEAN_ELEMENT_THEORY>SGP4</MEAN_ELEMENT_THEORY></metadata><data><meanElements><EPOCH>2025-12-13T14:15:57.048192</EPOCH><MEAN_MOTION>14.79909881</MEAN_MOTION><ECCENTRICITY>.00103925</ECCENTRICITY><INCLINATION>51.8976</INCLINATION><RA_OF_ASC_NODE>193.8441</RA_OF_ASC_NODE><ARG_OF_PERICENTER>161.9357</ARG_OF_PERICENTER><MEAN_ANOMALY>198.1976</MEAN_ANOMALY></meanElements><tleParameters><EPHEMERIS_TYPE>0</EPHEMERIS_TYPE><CLASSIFICATION_TYPE>U</CLASSIFICATION_TYPE><NORAD_CAT_ID>65153</NORAD_CAT_ID><ELEMENT_SET_NO>999</ELEMENT_SET_NO><REV_AT_EPOCH>1992</REV_AT_EPOCH><BSTAR>.47756458E-3</BSTAR><MEAN_MOTION_DOT>.342E-4</MEAN_MOTION_DOT><MEAN_MOTION_DDOT>0</MEAN_MOTION_DDOT></tleParameters></data></segment></body></omm>
<omm id="CCSDS_OMM_VERS" version="2.0">
<header><CREATION_DATE/><ORIGINATOR/></header><body><segment><metadata><OBJECT_NAME>KUIPER-00118</OBJECT_NAME><OBJECT_ID>2025-171Y</OBJECT_ID><CENTER_NAME>EARTH</CENTER_NAME><REF_FRAME>TEME</REF_FRAME><TIME_SYSTEM>UTC</TIME_SYSTEM><MEAN_ELEMENT_THEORY>SGP4</MEAN_ELEMENT_THEORY></metadata><data><meanElements><EPOCH>2025-12-13T14:12:05.209344</EPOCH><MEAN_MOTION>14.79946812</MEAN_MOTION><ECCENTRICITY>.00018024</ECCENTRICITY><INCLINATION>51.8990</INCLINATION><RA_OF_ASC_NODE>196.3107</RA_OF_ASC_NODE><ARG_OF_PERICENTER>138.3668</ARG_OF_PERICENTER><MEAN_ANOMALY>221.7432</MEAN_ANOMALY></meanElements><tleParameters><EPHEMERIS_TYPE>0</EPHEMERIS_TYPE><CLASSIFICATION_TYPE>U</CLASSIFICATION_TYPE><NORAD_CAT_ID>65154</NORAD_CAT_ID><ELEMENT_SET_NO>999</ELEMENT_SET_NO><REV_AT_EPOCH>1989</REV_AT_EPOCH><BSTAR>.51185736E-3</BSTAR><MEAN_MOTION_DOT>.3684E-4</MEAN_MOTION_DOT><MEAN_MOTION_DDOT>0</MEAN_MOTION_DDOT></tleParameters></data></segment></body></omm>
<omm id="CCSDS_OMM_VERS" version="2.0">
<header><CREATION_DATE/><ORIGINATOR/></header><body><segment><metadata><OBJECT_NAME>KUIPER-00119</OBJECT_NAME><OBJECT_ID>2025-171Z</OBJECT_ID><CENTER_NAME>EARTH</CENTER_NAME><REF_FRAME>TEME</REF_FRAME><TIME_SYSTEM>UTC</TIME_SYSTEM><MEAN_ELEMENT_THEORY>SGP4</MEAN_ELEMENT_THEORY></metadata><data><meanElements><EPOCH>2025-12-13T12:54:06.435936</EPOCH><MEAN_MOTION>14.79936088</MEAN_MOTION><ECCENTRICITY>.00082851</ECCENTRICITY><INCLINATION>51.8984</INCLINATION><RA_OF_ASC_NODE>184.1321</RA_OF_ASC_NODE><ARG_OF_PERICENTER>190.5162</ARG_OF_PERICENTER><MEAN_ANOMALY>169.5629</MEAN_ANOMALY></meanElements><tleParameters><EPHEMERIS_TYPE>0</EPHEMERIS_TYPE><CLASSIFICATION_TYPE>U</CLASSIFICATION_TYPE><NORAD_CAT_ID>65155</NORAD_CAT_ID><ELEMENT_SET_NO>999</ELEMENT_SET_NO><REV_AT_EPOCH>2005</REV_AT_EPOCH><BSTAR>.60154729E-3</BSTAR><MEAN_MOTION_DOT>.4368E-4</MEAN_MOTION_DOT><MEAN_MOTION_DDOT>0</MEAN_MOTION_DDOT></tleParameters></data></segment></body></omm>
<omm id="CCSDS_OMM_VERS" version="2.0">
<header><CREATION_DATE/><ORIGINATOR/></header><body><segment><metadata><OBJECT_NAME>KUIPER-00120</OBJECT_NAME><OBJECT_ID>2025-217A</OBJECT_ID><CENTER_NAME>EARTH</CENTER_NAME><REF_FRAME>TEME</REF_FRAME><TIME_SYSTEM>UTC</TIME_SYSTEM><MEAN_ELEMENT_THEORY>SGP4</MEAN_ELEMENT_THEORY></metadata><data><meanElements><EPOCH>2025-12-13T16:00:10.999872</EPOCH><MEAN_MOTION>14.82877213</MEAN_MOTION><ECCENTRICITY>.00154816</ECCENTRICITY><INCLINATION>51.8991</INCLINATION><RA_OF_ASC_NODE>72.3367</RA_OF_ASC_NODE><ARG_OF_PERICENTER>9.4944</ARG_OF_PERICENTER><MEAN_ANOMALY>5.5218</MEAN_ANOMALY></meanElements><tleParameters><EPHEMERIS_TYPE>0</EPHEMERIS_TYPE><CLASSIFICATION_TYPE>U</CLASSIFICATION_TYPE><NORAD_CAT_ID>65762</NORAD_CAT_ID><ELEMENT_SET_NO>999</ELEMENT_SET_NO><REV_AT_EPOCH>337</REV_AT_EPOCH><BSTAR>.21770875E-2</BSTAR><MEAN_MOTION_DOT>.17662E-3</MEAN_MOTION_DOT><MEAN_MOTION_DDOT>0</MEAN_MOTION_DDOT></tleParameters></data></segment></body></omm>
<omm id="CCSDS_OMM_VERS" version="2.0">
<header><CREATION_DATE/><ORIGINATOR/></header><body><segment><metadata><OBJECT_NAME>KUIPER-00132</OBJECT_NAME><OBJECT_ID>2025-217B</OBJECT_ID><CENTER_NAME>EARTH</CENTER_NAME><REF_FRAME>TEME</REF_FRAME><TIME_SYSTEM>UTC</TIME_SYSTEM><MEAN_ELEMENT_THEORY>SGP4</MEAN_ELEMENT_THEORY></metadata><data><meanElements><EPOCH>2025-12-13T14:42:19.265472</EPOCH><MEAN_MOTION>15.37433296</MEAN_MOTION><ECCENTRICITY>.00072894</ECCENTRICITY><INCLINATION>51.8616</INCLINATION><RA_OF_ASC_NODE>60.5252</RA_OF_ASC_NODE><ARG_OF_PERICENTER>17.3236</ARG_OF_PERICENTER><MEAN_ANOMALY>342.7998</MEAN_ANOMALY></meanElements><tleParameters><EPHEMERIS_TYPE>0</EPHEMERIS_TYPE><CLASSIFICATION_TYPE>U</CLASSIFICATION_TYPE><NORAD_CAT_ID>65763</NORAD_CAT_ID><ELEMENT_SET_NO>999</ELEMENT_SET_NO><REV_AT_EPOCH>1217</REV_AT_EPOCH><BSTAR>.98047589E-3</BSTAR><MEAN_MOTION_DOT>.36361E-3</MEAN_MOTION_DOT><MEAN_MOTION_DDOT>0</MEAN_MOTION_DDOT></tleParameters></data></segment></body></omm>

</ndm>
