KUIPER-00112            
1 65150U 25171U   25347.68092443  .00003839  00000+0  53193-3 0  9996
2 65150  51.9014 175.9220 0009101 234.6259 125.3854 14.79959247 20183
KUIPER-00114            
1 65151U 25171V   25347.55794408  .00003746  00000+0  51962-3 0  9992
2 65151  51.8980 196.4805 0006563 169.2356 190.8748 14.79973292 19882
KUIPER-00115            
1 65152U 25171W   25347.29590344  .00026186  00000+0  34473-2 0  9997
2 65152  51.8992 190.1193 0009857 195.7473 164.3184 14.79943950 19956
KUIPER-00116            
1 65153U 25171X   25347.59441028  .00003420  00000+0  47756-3 0  9990
2 65153  51.8976 193.8441 0010392 161.9357 198.1976 14.79909881 19923
KUIPER-00118            
1 65154U 25171Y   25347.59172696  .00003684  00000+0  51186-3 0  9997
2 65154  51.8990 196.3107 0001802 138.3668 221.7432 14.79946812 19897
KUIPER-00119            
1 65155U 25171Z   25347.53757449  .00004368  00000+0  60155-3 0  9993
2 65155  51.8984 184.1321 0008285 190.5162 169.5629 14.79936088 20056
KUIPER-00120            
1 65762U 25217A   25347.66679398  .00017662  00000+0  21771-2 0  9999
2 65762  51.8991  72.3367 0015481   9.4944   5.5218 14.82877213  3375
KUIPER-00132            
1 65763U 25217B   25347.61272298  .00036361  00000+0  98048-3 0  9992
2 65763  51.8616  60.5252 0007289  17.3236 342.7998 15.37433296 12170
